OBJECT_NAME,OBJECT_ID,EPOCH,MEAN_MOTION,ECCENTRICITY,INCLINATION,RA_OF_ASC_NODE,ARG_OF_PERICENTER,MEAN_ANOMALY,EPHEMERIS_TYPE,CLASSIFICATION_TYPE,NORAD_CAT_ID,ELEMENT_SET_NO,REV_AT_EPOCH,BSTAR,MEAN_MOTION_DOT,MEAN_MOTION_DDOT
DMSP 5D-3 F16 (USA 172),2003-048A,2026-07-11T20:21:12.479040,14.14484830,.0008188,98.9887,216.8388,79.4440,323.4960,0,U,28054,999,17297,.45705E-5,-.37E-6,0
METEOSAT-9 (MSG-2),2005-049B,2026-07-11T17:26:38.772096,1.00270407,.0002049,9.4145,53.9209,357.1027,185.9350,0,U,28912,999,724,0,.12E-5,0
DMSP 5D-3 F17 (USA 191),2006-050A,2026-07-11T20:20:59.095680,14.14996026,.0009921,98.7385,198.9139,352.6646,7.4381,0,U,29522,999,1591,.17982E-4,-.9E-7,0
FENGYUN 3A,2008-026A,2026-07-11T20:34:47.275104,14.19576043,.0009749,98.6887,133.2298,60.4614,299.7533,0,U,32958,999,93890,.28345E-4,.16E-6,0
GOES 14,2009-033A,2026-07-11T19:17:44.664288,1.00099795,.0001876,1.7505,82.7359,40.0902,223.4941,0,U,35491,999,683,0,-.352E-5,0
DMSP 5D-3 F18 (USA 210),2009-057A,2026-07-11T21:23:51.158112,14.14910290,.0011027,98.9053,173.6088,174.7654,185.3637,0,U,35951,999,86308,.11457E-3,.177E-5,0
EWS-G2 (GOES 15),2010-008A,2026-07-11T20:32:21.867360,1.00268192,.0005196,1.3426,82.5064,53.4833,165.2112,0,U,36411,999,5988,0,.25E-6,0
COMS 1,2010-032A,2026-07-11T08:19:04.481760,0.99168841,.00112649,4.8643,75.0643,14.7082,301.5980,0,U,36744,999,5132,0,-.239E-5,0
FENGYUN 3B,2010-059A,2026-07-11T20:27:46.063872,14.14846673,.0023068,98.9614,238.9699,115.6902,353.8615,0,U,37214,999,81091,.11304E-3,.174E-5,0
SUOMI NPP,2011-061A,2026-07-11T20:52:18.031296,14.19522247,.0000615,98.7956,133.5777,236.0978,124.0140,0,U,37849,999,76194,.33164E-4,.26E-6,0
METEOSAT-10 (MSG-3),2012-035B,2026-07-11T20:24:10.125216,1.00270156,.0001085,4.7275,60.8953,18.1594,156.7978,0,U,38552,999,5110,0,-.8E-7,0
METOP-B,2012-049A,2026-07-11T19:50:03.470784,14.21445757,.0001056,98.6491,243.8325,276.2615,83.8443,0,U,38771,999,71676,.37851E-4,.39E-6,0
INSAT-3D,2013-038B,2026-07-11T19:18:22.104000,1.00270054,.0000506,1.9868,82.2295,84.5038,182.0874,0,U,39216,999,4732,0,-.337E-5,0
FENGYUN 3C,2013-052A,2026-07-11T20:24:13.949280,14.15760331,.0013816,98.4995,165.5946,316.2065,43.8013,0,U,39260,999,66205,.33534E-4,.24E-6,0
METEOR-M 2,2014-037A,2026-07-11T20:27:30.847104,14.21468144,.0005359,98.5124,167.7185,337.7780,22.3165,0,U,40069,999,62282,-.97109E-5,-.63E-6,0
HIMAWARI-8,2014-060A,2026-07-11T21:04:10.979040,1.00272552,.0001049,0.0221,306.6640,222.5270,217.2953,0,U,40267,999,4300,0,-.271E-5,0
FENGYUN 2G,2014-090A,2026-07-11T16:20:27.670848,1.00261698,.0004256,5.6967,72.5183,151.8575,49.6342,0,U,40367,999,4224,0,-.299E-5,0
METEOSAT-11 (MSG-4),2015-034A,2026-07-11T20:26:47.374080,1.00270818,.0002249,3.2612,70.9557,352.9573,181.7867,0,U,40732,999,746,0,.62E-6,0
ELEKTRO-L 2,2015-074A,2026-07-11T10:04:03.448704,1.00272476,.00008885,6.7510,70.2237,218.2194,137.3884,0,U,41105,999,3874,0,-.118E-5,0
SENTINEL-3A,2016-011A,2026-07-11T19:58:17.647680,14.26739162,.0001383,98.6238,259.8605,91.0903,269.0436,0,U,41335,999,54157,.33749E-4,.38E-6,0
INSAT-3DR,2016-054A,2026-07-11T21:22:01.193376,1.00271971,.001064,0.0611,88.7325,181.7646,53.8059,0,U,41752,999,3606,0,-.73E-6,0
HIMAWARI-9,2016-064A,2026-07-11T21:04:18.467328,1.00269999,.0002255,0.0289,55.5033,123.3481,207.7688,0,U,41836,999,3545,0,0,0
GOES 16,2016-071A,2026-07-11T19:54:18.659232,1.00270880,.0000525,0.3948,85.5062,98.5955,299.5179,0,U,41866,999,3535,0,-.87E-6,0
FENGYUN 4A,2016-077A,2026-07-11T19:16:44.759712,1.00270073,.0008464,2.3813,80.0102,159.1276,103.5301,0,U,41882,999,3517,0,-.355E-5,0
CYGFM05,2016-078A,2026-07-11T20:40:20.532000,15.57746572,.0006596,34.9565,97.0660,4.0569,356.0208,0,U,41884,999,53260,.2109E-3,.16178E-3,0
CYGFM04,2016-078B,2026-07-11T19:35:55.758048,15.62929651,.0004621,34.9324,63.7757,46.1119,313.9988,0,U,41885,999,53285,.2287E-3,.21434E-3,0
CYGFM02,2016-078C,2026-07-11T19:58:05.022912,15.66178592,.0005356,34.9406,57.4576,50.1273,309.9925,0,U,41886,999,53303,.24262E-3,.25909E-3,0
CYGFM01,2016-078D,2026-07-11T20:08:10.472640,15.58460515,.0006606,34.9394,98.0670,357.3077,2.7611,0,U,41887,999,53255,.21378E-3,.16852E-3,0
CYGFM08,2016-078E,2026-07-11T19:39:05.272992,15.61319979,.0006756,34.9429,77.1100,33.1202,326.9946,0,U,41888,999,53282,.22402E-3,.1972E-3,0
CYGFM07,2016-078G,2026-07-11T18:37:57.282816,15.61426215,.0005046,34.9448,65.7131,46.4518,313.6626,0,U,41890,999,53284,.22435E-3,.19822E-3,0
CYGFM03,2016-078H,2026-07-11T19:28:29.845920,15.61414965,.0005095,34.9402,67.4095,30.6005,329.5017,0,U,41891,999,53282,.22003E-3,.1943E-3,0
